{
  "type": "FeatureCollection",
  "features": [
    {
      "type": "Feature",
      "properties": {
        "norad_id": 37836,
        "name": "EUTELSAT 16A",
        "group": "eutelsat",
        "lat": -0.07448139957615978,
        "lon": -102.65897890745529,
        "alt_km": 35762.764760326034,
        "timestamp": "2025-12-25T09:48:51.957425+00:00",
        "meta_object_name": "EUTELSAT 16A",
        "meta_object_id": "2011-057A",
        "meta_epoch": "2025-12-24T23:26:49.113312",
        "meta_mean_motion": 1.00271109,
        "meta_eccentricity": 0.0005841,
        "meta_inclination": 0.0561,
        "meta_ra_of_asc_node": 348.7482,
        "meta_arg_of_pericenter": 286.97,
        "meta_mean_anomaly": 185.7141,
        "meta_ephemeris_type": 0,
        "meta_classification_type": "U",
        "meta_norad_cat_id": 37836,
        "meta_element_set_no": 999,
        "meta_rev_at_epoch": 558,
        "meta_bstar": 0,
        "meta_mean_motion_dot": 1.25e-06,
        "meta_mean_motion_ddot": 0,
        "tle_line1": "1 37836U 11057A   25358.97695733  .00000125  00000+0  00000+0 0  9999",
        "tle_line2": "2 37836   0.0561 348.7482 0005841 286.9700 185.7141  1.00271109  5583"
      },
      "geometry": {
        "type": "Point",
        "coordinates": [
          -102.65897890745529,
          -0.07448139957615978
        ]
      }
    },
    {
      "type": "Feature",
      "properties": {
        "norad_id": 38992,
        "name": "EUTELSAT 21B",
        "group": "eutelsat",
        "lat": -0.08463858154526575,
        "lon": -97.05486934200088,
        "alt_km": 35773.06982266302,
        "timestamp": "2025-12-25T09:48:51.957436+00:00",
        "meta_object_name": "EUTELSAT 21B",
        "meta_object_id": "2012-062B",
        "meta_epoch": "2025-12-24T23:28:26.456736",
        "meta_mean_motion": 1.00271068,
        "meta_eccentricity": 0.0003245,
        "meta_inclination": 0.0657,
        "meta_ra_of_asc_node": 349.5129,
        "meta_arg_of_pericenter": 289.9649,
        "meta_mean_anomaly": 187.9548,
        "meta_ephemeris_type": 0,
        "meta_classification_type": "U",
        "meta_norad_cat_id": 38992,
        "meta_element_set_no": 999,
        "meta_rev_at_epoch": 4808,
        "meta_bstar": 0,
        "meta_mean_motion_dot": 1.51e-06,
        "meta_mean_motion_ddot": 0,
        "tle_line1": "1 38992U 12062B   25358.97808399  .00000151  00000+0  00000+0 0  9993",
        "tle_line2": "2 38992   0.0657 349.5129 0003245 289.9649 187.9548  1.00271068 48082"
      },
      "geometry": {
        "type": "Point",
        "coordinates": [
          -97.05486934200088,
          -0.08463858154526575
        ]
      }
    },
    {
      "type": "Feature",
      "properties": {
        "norad_id": 39020,
        "name": "EUTELSAT 70B",
        "group": "eutelsat",
        "lat": -0.052063376208658925,
        "lon": -48.08645100872249,
        "alt_km": 35776.327399427224,
        "timestamp": "2025-12-25T09:48:51.957448+00:00",
        "meta_object_name": "EUTELSAT 70B",
        "meta_object_id": "2012-069A",
        "meta_epoch": "2025-12-24T23:42:25.119072",
        "meta_mean_motion": 1.00271905,
        "meta_eccentricity": 0.0004192,
        "meta_inclination": 0.0621,
        "meta_ra_of_asc_node": 347.1794,
        "meta_arg_of_pericenter": 267.7791,
        "meta_mean_anomaly": 264.8944,
        "meta_ephemeris_type": 0,
        "meta_classification_type": "U",
        "meta_norad_cat_id": 39020,
        "meta_element_set_no": 999,
        "meta_rev_at_epoch": 4776,
        "meta_bstar": 0,
        "meta_mean_motion_dot": -2.2e-07,
        "meta_mean_motion_ddot": 0,
        "tle_line1": "1 39020U 12069A   25358.98779073 -.00000022  00000+0  00000+0 0  9998",
        "tle_line2": "2 39020   0.0621 347.1794 0004192 267.7791 264.8944  1.00271905 47761"
      },
      "geometry": {
        "type": "Point",
        "coordinates": [
          -48.08645100872249,
          -0.052063376208658925
        ]
      }
    },
    {
      "type": "Feature",
      "properties": {
        "norad_id": 39122,
        "name": "EUTELSAT 117 WEST A",
        "group": "eutelsat",
        "lat": 0.018643075751317843,
        "lon": 124.56857177453784,
        "alt_km": 35796.69697223841,
        "timestamp": "2025-12-25T09:48:51.957460+00:00",
        "meta_object_name": "EUTELSAT 117 WEST A",
        "meta_object_id": "2013-012A",
        "meta_epoch": "2025-12-25T03:39:37.302048",
        "meta_mean_motion": 1.00270793,
        "meta_eccentricity": 0.0002746,
        "meta_inclination": 0.0189,
        "meta_ra_of_asc_node": 321.021,
        "meta_arg_of_pericenter": 316.4118,
        "meta_mean_anomaly": 114.594,
        "meta_ephemeris_type": 0,
        "meta_classification_type": "U",
        "meta_norad_cat_id": 39122,
        "meta_element_set_no": 999,
        "meta_rev_at_epoch": 4668,
        "meta_bstar": 0,
        "meta_mean_motion_dot": 8e-08,
        "meta_mean_motion_ddot": 0,
        "tle_line1": "1 39122U 13012A   25359.15251507  .00000008  00000+0  00000+0 0  9990",
        "tle_line2": "2 39122   0.0189 321.0210 0002746 316.4118 114.5940  1.00270793 46686"
      },
      "geometry": {
        "type": "Point",
        "coordinates": [
          124.56857177453784,
          0.018643075751317843
        ]
      }
    },
    {
      "type": "Feature",
      "properties": {
        "norad_id": 39163,
        "name": "EUTELSAT 7B",
        "group": "eutelsat",
        "lat": -0.0739706641508206,
        "lon": -111.67884223932215,
        "alt_km": 35780.704362806864,
        "timestamp": "2025-12-25T09:48:51.957473+00:00",
        "meta_object_name": "EUTELSAT 7B",
        "meta_object_id": "2013-022A",
        "meta_epoch": "2025-12-24T23:24:19.351008",
        "meta_mean_motion": 1.00271638,
        "meta_eccentricity": 0.0004609,
        "meta_inclination": 0.0657,
        "meta_ra_of_asc_node": 9.0547,
        "meta_arg_of_pericenter": 313.3925,
        "meta_mean_anomaly": 129.3681,
        "meta_ephemeris_type": 0,
        "meta_classification_type": "U",
        "meta_norad_cat_id": 39163,
        "meta_element_set_no": 999,
        "meta_rev_at_epoch": 4620,
        "meta_bstar": 0,
        "meta_mean_motion_dot": 6.9e-07,
        "meta_mean_motion_ddot": 0,
        "tle_line1": "1 39163U 13022A   25358.97522397  .00000069  00000+0  00000+0 0  9990",
        "tle_line2": "2 39163   0.0657   9.0547 0004609 313.3925 129.3681  1.00271638 46202"
      },
      "geometry": {
        "type": "Point",
        "coordinates": [
          -111.67884223932215,
          -0.0739706641508206
        ]
      }
    },
    {
      "type": "Feature",
      "properties": {
        "norad_id": 39612,
        "name": "EXPRESS-AT1",
        "group": "eutelsat",
        "lat": -0.010184859877726523,
        "lon": -62.625082175689684,
        "alt_km": 35789.943512053986,
        "timestamp": "2025-12-25T09:48:51.957485+00:00",
        "meta_object_name": "EXPRESS-AT1",
        "meta_object_id": "2014-010A",
        "meta_epoch": "2025-12-24T21:55:35.351040",
        "meta_mean_motion": 1.00271265,
        "meta_eccentricity": 8.894e-05,
        "meta_inclination": 0.0123,
        "meta_ra_of_asc_node": 292.9239,
        "meta_arg_of_pericenter": 186.2231,
        "meta_mean_anomaly": 359.4276,
        "meta_ephemeris_type": 0,
        "meta_classification_type": "U",
        "meta_norad_cat_id": 39612,
        "meta_element_set_no": 999,
        "meta_rev_at_epoch": 4307,
        "meta_bstar": 0,
        "meta_mean_motion_dot": 1e-06,
        "meta_mean_motion_ddot": 0,
        "tle_line1": "1 39612U 14010A   25358.91360360  .00000100  00000+0  00000+0 0  9997",
        "tle_line2": "2 39612   0.0123 292.9239 0000889 186.2231 359.4276  1.00271265 43077"
      },
      "geometry": {
        "type": "Point",
        "coordinates": [
          -62.625082175689684,
          -0.010184859877726523
        ]
      }
    },
    {
      "type": "Feature",
      "properties": {
        "norad_id": 39613,
        "name": "EXPRESS-AT2",
        "group": "eutelsat",
        "lat": 0.014561376678681596,
        "lon": 21.258407415087593,
        "alt_km": 35788.19614679687,
        "timestamp": "2025-12-25T09:48:51.957496+00:00",
        "meta_object_name": "EXPRESS-AT2",
        "meta_object_id": "2014-010B",
        "meta_epoch": "2025-12-24T22:19:25.569120",
        "meta_mean_motion": 1.00272061,
        "meta_eccentricity": 0.0001582,
        "meta_inclination": 0.0172,
        "meta_ra_of_asc_node": 291.1665,
        "meta_arg_of_pericenter": 341.4259,
        "meta_mean_anomaly": 295.8232,
        "meta_ephemeris_type": 0,
        "meta_classification_type": "U",
        "meta_norad_cat_id": 39613,
        "meta_element_set_no": 999,
        "meta_rev_at_epoch": 4275,
        "meta_bstar": 0,
        "meta_mean_motion_dot": -2.6e-06,
        "meta_mean_motion_ddot": 0,
        "tle_line1": "1 39613U 14010B   25358.93015705 -.00000260  00000+0  00000+0 0  9998",
        "tle_line2": "2 39613   0.0172 291.1665 0001582 341.4259 295.8232  1.00272061 42756"
      },
      "geometry": {
        "type": "Point",
        "coordinates": [
          21.258407415087593,
          0.014561376678681596
        ]
      }
    }
  ]
}